[{"OBJECT_NAME":"STARLINK-34810","OBJECT_ID":"2025-165N","EPOCH":"2026-03-09T17:25:30.860832","MEAN_MOTION":15.0565435,"ECCENTRICITY":0.00011921,"INCLINATION":97.6017,"RA_OF_ASC_NODE":147.2304,"ARG_OF_PERICENTER":108.3735,"MEAN_ANOMALY":251.7622,"EPHEMERIS_TYPE":0,"CLASSIFICATION_TYPE":"U","NORAD_CAT_ID":65068,"ELEMENT_SET_NO":999,"REV_AT_EPOCH":3479,"BSTAR":0.00027894492,"MEAN_MOTION_DOT":3.967e-5,"MEAN_MOTION_DDOT":0},{"OBJECT_NAME":"AISAT","OBJECT_ID":"2014-034B","EPOCH":"2026-03-09T16:29:04.722144","MEAN_MOTION":15.06703825,"ECCENTRICITY":0.00089151,"INCLINATION":98.2441,"RA_OF_ASC_NODE":333.9816,"ARG_OF_PERICENTER":189.0234,"MEAN_ANOMALY":171.0832,"EPHEMERIS_TYPE":0,"CLASSIFICATION_TYPE":"U","NORAD_CAT_ID":40054,"ELEMENT_SET_NO":999,"REV_AT_EPOCH":63221,"BSTAR":0.00094770343,"MEAN_MOTION_DOT":0.00014038,"MEAN_MOTION_DDOT":0}]
